ATLAS CENTAUR R/B       
1 06155U 72065B   26049.09877512  .00001299  00000+0  18014-3 0  9994
2 06155  35.0018  60.5561 0034077 206.3106 153.5864 14.77626684838369
SL-8 R/B                
1 08459U 75112B   26049.44374958  .00000153  00000+0  58880-4 0  9998
2 08459  74.0594  54.3173 0014970 154.8446 205.3441 14.38192971629105
SL-3 R/B                
1 10114U 77057B   26049.55029603  .00012356  00000+0  26448-3 0  9997
2 10114  97.5739 220.6408 0007273   1.3511 358.7755 15.44917614665370
SEASAT 1                
1 10967U 78064A   26049.61199517  .00000219  00000+0  99784-4 0  9990
2 10967 108.0153  85.4642 0001833 291.3660  68.7290 14.46144606503752
SL-14 R/B               
1 11267U 79011B   26049.59952316  .00000556  00000+0  52365-4 0  9996
2 11267  82.5239 114.6867 0017496 119.1513 241.1460 14.91884559525935
SL-8 R/B                
1 11574U 79089B   26049.60223436  .00000260  00000+0  86647-4 0  9990
2 11574  74.0691 126.3775 0016851 300.9720  58.9780 14.42338616433353
SL-14 R/B               
1 11672U 80005B   26049.26442211  .00000639  00000+0  62129-4 0  9994
2 11672  82.5173 325.6580 0014508 224.4197 135.5859 14.90904878473595
SL-8 R/B                
1 12139U 81003B   26049.19379603  .00013802  00000+0  36291-3 0  9994
2 12139  82.9398 308.0409 0262586 246.5364 110.8070 15.10241351311735
SL-3 R/B                
1 12465U 81046B   26049.57301947  .00012129  00000+0  28676-3 0  9990
2 12465  81.2339 312.6872 0020760  85.3964 274.9649 15.41454730435484
SL-3 R/B                
1 12904U 81103B   26049.56569526  .00004830  00000+0  21542-3 0  9995
2 12904  81.1557 235.8651 0013177 353.8728   6.2339 15.21133094970323
SL-3 R/B                
1 13068U 82013B   26049.58194228  .00005432  00000+0  23677-3 0  9993
2 13068  81.1758 183.1571 0021770 243.1638 116.7368 15.21795356401449
SL-3 R/B                
1 13154U 82039B   26049.57263449  .00002189  00000+0  13206-3 0  9991
2 13154  81.1590 237.9993 0030010  26.9280 333.3494 15.09966723378750
