CCSDS_OMM_VERS = 2.0
CREATION_DATE  = 
ORIGINATOR     = 

OBJECT_NAME    = ATLAS CENTAUR R/B
OBJECT_ID      = 1972-065B
CENTER_NAME    = EARTH
REF_FRAME      = TEME
TIME_SYSTEM    = UTC
MEAN_ELEMENT_THEORY = SGP/SGP4

EPOCH          = 2026-02-18T02:22:14.170368
MEAN_MOTION    = 14.77626684
ECCENTRICITY   = .00340779
INCLINATION    = 35.0018
RA_OF_ASC_NODE = 60.5561
ARG_OF_PERICENTER = 206.3106
MEAN_ANOMALY   = 153.5864

EPHEMERIS_TYPE = 0
CLASSIFICATION_TYPE = U
NORAD_CAT_ID   = 6155
ELEMENT_SET_NO = 999
REV_AT_EPOCH   = 83836
BSTAR          = .18013848E-3
MEAN_MOTION_DOT = .1299E-4
MEAN_MOTION_DDOT = 0

CCSDS_OMM_VERS = 2.0
CREATION_DATE  = 
ORIGINATOR     = 

OBJECT_NAME    = SL-8 R/B
OBJECT_ID      = 1975-112B
CENTER_NAME    = EARTH
REF_FRAME      = TEME
TIME_SYSTEM    = UTC
MEAN_ELEMENT_THEORY = SGP/SGP4

EPOCH          = 2026-02-18T10:38:59.963712
MEAN_MOTION    = 14.38192971
ECCENTRICITY   = .00149707
INCLINATION    = 74.0594
RA_OF_ASC_NODE = 54.3173
ARG_OF_PERICENTER = 154.8446
MEAN_ANOMALY   = 205.3441

EPHEMERIS_TYPE = 0
CLASSIFICATION_TYPE = U
NORAD_CAT_ID   = 8459
ELEMENT_SET_NO = 999
REV_AT_EPOCH   = 62910
BSTAR          = .5887971E-4
MEAN_MOTION_DOT = .153E-5
MEAN_MOTION_DDOT = 0

CCSDS_OMM_VERS = 2.0
CREATION_DATE  = 
ORIGINATOR     = 

OBJECT_NAME    = SL-3 R/B
OBJECT_ID      = 1977-057B
CENTER_NAME    = EARTH
REF_FRAME      = TEME
TIME_SYSTEM    = UTC
MEAN_ELEMENT_THEORY = SGP/SGP4

EPOCH          = 2026-02-18T13:12:25.576992
MEAN_MOTION    = 15.44917614
ECCENTRICITY   = .00072732
INCLINATION    = 97.5739
RA_OF_ASC_NODE = 220.6408
ARG_OF_PERICENTER = 1.3511
MEAN_ANOMALY   = 358.7755

EPHEMERIS_TYPE = 0
CLASSIFICATION_TYPE = U
NORAD_CAT_ID   = 10114
ELEMENT_SET_NO = 999
REV_AT_EPOCH   = 66537
BSTAR          = .26447807E-3
MEAN_MOTION_DOT = .12356E-3
MEAN_MOTION_DDOT = 0

CCSDS_OMM_VERS = 2.0
CREATION_DATE  = 
ORIGINATOR     = 

OBJECT_NAME    = SEASAT 1
OBJECT_ID      = 1978-064A
CENTER_NAME    = EARTH
REF_FRAME      = TEME
TIME_SYSTEM    = UTC
MEAN_ELEMENT_THEORY = SGP/SGP4

EPOCH          = 2026-02-18T14:41:16.382688
MEAN_MOTION    = 14.46144606
ECCENTRICITY   = .00018333
INCLINATION    = 108.0153
RA_OF_ASC_NODE = 85.4642
ARG_OF_PERICENTER = 291.3660
MEAN_ANOMALY   = 68.7290

EPHEMERIS_TYPE = 0
CLASSIFICATION_TYPE = U
NORAD_CAT_ID   = 10967
ELEMENT_SET_NO = 999
REV_AT_EPOCH   = 50375
BSTAR          = .99783742E-4
MEAN_MOTION_DOT = .219E-5
MEAN_MOTION_DDOT = 0

CCSDS_OMM_VERS = 2.0
CREATION_DATE  = 
ORIGINATOR     = 

OBJECT_NAME    = SL-14 R/B
OBJECT_ID      = 1979-011B
CENTER_NAME    = EARTH
REF_FRAME      = TEME
TIME_SYSTEM    = UTC
MEAN_ELEMENT_THEORY = SGP/SGP4

EPOCH          = 2026-02-18T14:23:18.801024
MEAN_MOTION    = 14.91884559
ECCENTRICITY   = .00174968
INCLINATION    = 82.5239
RA_OF_ASC_NODE = 114.6867
ARG_OF_PERICENTER = 119.1513
MEAN_ANOMALY   = 241.1460

EPHEMERIS_TYPE = 0
CLASSIFICATION_TYPE = U
NORAD_CAT_ID   = 11267
ELEMENT_SET_NO = 999
REV_AT_EPOCH   = 52593
BSTAR          = .52365006E-4
MEAN_MOTION_DOT = .556E-5
MEAN_MOTION_DDOT = 0

CCSDS_OMM_VERS = 2.0
CREATION_DATE  = 
ORIGINATOR     = 

OBJECT_NAME    = SL-8 R/B
OBJECT_ID      = 1979-089B
CENTER_NAME    = EARTH
REF_FRAME      = TEME
TIME_SYSTEM    = UTC
MEAN_ELEMENT_THEORY = SGP/SGP4

EPOCH          = 2026-02-18T14:27:13.048704
MEAN_MOTION    = 14.42338616
ECCENTRICITY   = .0016851
INCLINATION    = 74.0691
RA_OF_ASC_NODE = 126.3775
ARG_OF_PERICENTER = 300.9720
MEAN_ANOMALY   = 58.9780

EPHEMERIS_TYPE = 0
CLASSIFICATION_TYPE = U
NORAD_CAT_ID   = 11574
ELEMENT_SET_NO = 999
REV_AT_EPOCH   = 43335
BSTAR          = .86646746E-4
MEAN_MOTION_DOT = .26E-5
MEAN_MOTION_DDOT = 0

CCSDS_OMM_VERS = 2.0
CREATION_DATE  = 
ORIGINATOR     = 

OBJECT_NAME    = SL-14 R/B
OBJECT_ID      = 1980-005B
CENTER_NAME    = EARTH
REF_FRAME      = TEME
TIME_SYSTEM    = UTC
MEAN_ELEMENT_THEORY = SGP/SGP4

EPOCH          = 2026-02-18T06:20:46.070304
MEAN_MOTION    = 14.90904878
ECCENTRICITY   = .00145087
INCLINATION    = 82.5173
RA_OF_ASC_NODE = 325.6580
ARG_OF_PERICENTER = 224.4197
MEAN_ANOMALY   = 135.5859

EPHEMERIS_TYPE = 0
CLASSIFICATION_TYPE = U
NORAD_CAT_ID   = 11672
ELEMENT_SET_NO = 999
REV_AT_EPOCH   = 47359
BSTAR          = .62128934E-4
MEAN_MOTION_DOT = .639E-5
MEAN_MOTION_DDOT = 0

CCSDS_OMM_VERS = 2.0
CREATION_DATE  = 
ORIGINATOR     = 

OBJECT_NAME    = SL-8 R/B
OBJECT_ID      = 1981-003B
CENTER_NAME    = EARTH
REF_FRAME      = TEME
TIME_SYSTEM    = UTC
MEAN_ELEMENT_THEORY = SGP/SGP4

EPOCH          = 2026-02-18T04:39:03.976992
MEAN_MOTION    = 15.10241351
ECCENTRICITY   = .02625861
INCLINATION    = 82.9398
RA_OF_ASC_NODE = 308.0409
ARG_OF_PERICENTER = 246.5364
MEAN_ANOMALY   = 110.8070

EPHEMERIS_TYPE = 0
CLASSIFICATION_TYPE = U
NORAD_CAT_ID   = 12139
ELEMENT_SET_NO = 999
REV_AT_EPOCH   = 31173
BSTAR          = .36291001E-3
MEAN_MOTION_DOT = .13802E-3
MEAN_MOTION_DDOT = 0

CCSDS_OMM_VERS = 2.0
CREATION_DATE  = 
ORIGINATOR     = 

OBJECT_NAME    = SL-3 R/B
OBJECT_ID      = 1981-046B
CENTER_NAME    = EARTH
REF_FRAME      = TEME
TIME_SYSTEM    = UTC
MEAN_ELEMENT_THEORY = SGP/SGP4

EPOCH          = 2026-02-18T13:45:08.882208
MEAN_MOTION    = 15.41454730
ECCENTRICITY   = .00207606
INCLINATION    = 81.2339
RA_OF_ASC_NODE = 312.6872
ARG_OF_PERICENTER = 85.3964
MEAN_ANOMALY   = 274.9649

EPHEMERIS_TYPE = 0
CLASSIFICATION_TYPE = U
NORAD_CAT_ID   = 12465
ELEMENT_SET_NO = 999
REV_AT_EPOCH   = 43548
BSTAR          = .28675794E-3
MEAN_MOTION_DOT = .12129E-3
MEAN_MOTION_DDOT = 0

CCSDS_OMM_VERS = 2.0
CREATION_DATE  = 
ORIGINATOR     = 

OBJECT_NAME    = SL-3 R/B
OBJECT_ID      = 1981-103B
CENTER_NAME    = EARTH
REF_FRAME      = TEME
TIME_SYSTEM    = UTC
MEAN_ELEMENT_THEORY = SGP/SGP4

EPOCH          = 2026-02-18T13:34:36.070464
MEAN_MOTION    = 15.21133094
ECCENTRICITY   = .00131778
INCLINATION    = 81.1557
RA_OF_ASC_NODE = 235.8651
ARG_OF_PERICENTER = 353.8728
MEAN_ANOMALY   = 6.2339

EPHEMERIS_TYPE = 0
CLASSIFICATION_TYPE = U
NORAD_CAT_ID   = 12904
ELEMENT_SET_NO = 999
REV_AT_EPOCH   = 97032
BSTAR          = .21542356E-3
MEAN_MOTION_DOT = .483E-4
MEAN_MOTION_DDOT = 0

CCSDS_OMM_VERS = 2.0
CREATION_DATE  = 
ORIGINATOR     = 

OBJECT_NAME    = SL-3 R/B
OBJECT_ID      = 1982-013B
CENTER_NAME    = EARTH
REF_FRAME      = TEME
TIME_SYSTEM    = UTC
MEAN_ELEMENT_THEORY = SGP/SGP4

EPOCH          = 2026-02-18T13:57:59.812992
MEAN_MOTION    = 15.21795356
ECCENTRICITY   = .00217706
INCLINATION    = 81.1758
RA_OF_ASC_NODE = 183.1571
ARG_OF_PERICENTER = 243.1638
MEAN_ANOMALY   = 116.7368

EPHEMERIS_TYPE = 0
CLASSIFICATION_TYPE = U
NORAD_CAT_ID   = 13068
ELEMENT_SET_NO = 999
REV_AT_EPOCH   = 40144
BSTAR          = .23676902E-3
MEAN_MOTION_DOT = .5432E-4
MEAN_MOTION_DDOT = 0

CCSDS_OMM_VERS = 2.0
CREATION_DATE  = 
ORIGINATOR     = 

OBJECT_NAME    = SL-3 R/B
OBJECT_ID      = 1982-039B
CENTER_NAME    = EARTH
REF_FRAME      = TEME
TIME_SYSTEM    = UTC
MEAN_ELEMENT_THEORY = SGP/SGP4

EPOCH          = 2026-02-18T13:44:35.619936
MEAN_MOTION    = 15.09966723
ECCENTRICITY   = .00300105
INCLINATION    = 81.1590
RA_OF_ASC_NODE = 237.9993
ARG_OF_PERICENTER = 26.9280
MEAN_ANOMALY   = 333.3494

EPHEMERIS_TYPE = 0
CLASSIFICATION_TYPE = U
NORAD_CAT_ID   = 13154
ELEMENT_SET_NO = 999
REV_AT_EPOCH   = 37875
BSTAR          = .13205626E-3
MEAN_MOTION_DOT = .2189E-4
MEAN_MOTION_DDOT = 0

